[{"OBJECT_NAME":"STARLINK-6296","OBJECT_ID":"2023-078G","EPOCH":"2026-03-09T23:11:47.813568","MEAN_MOTION":14.98325501,"ECCENTRICITY":0.00027866,"INCLINATION":69.999,"RA_OF_ASC_NODE":303.9273,"ARG_OF_PERICENTER":270.4408,"MEAN_ANOMALY":89.6431,"EPHEMERIS_TYPE":0,"CLASSIFICATION_TYPE":"U","NORAD_CAT_ID":56773,"ELEMENT_SET_NO":999,"REV_AT_EPOCH":15370,"BSTAR":2.3787996e-5,"MEAN_MOTION_DOT":1.91e-6,"MEAN_MOTION_DDOT":0},{"OBJECT_NAME":"FENGYUN 1C DEB","OBJECT_ID":"1999-025BBM","EPOCH":"2026-03-07T23:41:19.079232","MEAN_MOTION":14.72470246,"ECCENTRICITY":0.01607389,"INCLINATION":99.1941,"RA_OF_ASC_NODE":127.0213,"ARG_OF_PERICENTER":288.175,"MEAN_ANOMALY":194.9848,"EPHEMERIS_TYPE":0,"CLASSIFICATION_TYPE":"U","NORAD_CAT_ID":30971,"ELEMENT_SET_NO":999,"REV_AT_EPOCH":970,"BSTAR":0.00062783413,"MEAN_MOTION_DOT":4.813e-5,"MEAN_MOTION_DDOT":0}]
